FENGYUN 1C DEB          
1 38168U 99025ERR 17345.33366943  .00000790  00000-0  42975-3 0  9994
2 38168  98.9462  36.7892 0055939 209.1216 150.6834 14.14422676229943
